STARLINK-31549          
1 59360U 24060N   25336.05138557 -.00002028  00000+0 -64234-4 0  9994
2 59360  42.9988  90.9772 0000566  97.8772 262.2144 15.27558015 95134
STARLINK-31560          
1 59361U 24060P   25335.62707459  .00000070  00000+0  12078-4 0  9992
2 59361  42.9989  93.8113 0001005 276.8444  83.2293 15.27571187 95064
STARLINK-31571          
1 59362U 24060Q   25335.36809603 -.00000377  00000+0 -41872-5 0  9995
2 59362  42.9996  95.3116 0000910 271.0089  89.0659 15.27572960 95025
STARLINK-31553          
1 59363U 24060R   25335.61903664 -.00002033  00000+0 -64366-4 0  9999
2 59363  42.9996  86.8155 0001030 274.2993  85.7741 15.27584540 95142
STARLINK-31547          
1 59364U 24060S   25335.99884584 -.00003457  00000+0 -11609-3 0  9992
2 59364  43.0023  80.1988 0001284 291.5127  68.5587 15.27600175 95251
STARLINK-31537          
1 59365U 24060T   25335.63734441  .00003893  00000+0  15097-3 0  9997
2 59365  43.0027  93.8932 0001445 275.4280  84.6406 15.27571179 95065
STARLINK-31451          
1 59366U 24060U   25336.04755166 -.00003811  00000+0 -12917-3 0  9991
2 59366  43.0053  90.9498 0001859 264.0589  96.0051 15.27541813 95138
STARLINK-31428          
1 59367U 24060V   25335.60136756  .00000785  00000+0  38054-4 0  9997
2 59367  43.0021  93.6175 0001366 243.7368 116.3343 15.27580743 95065
STARLINK-31419          
1 59368U 24060W   25335.41163501  .00000670  00000+0  33882-4 0  9992
2 59368  42.9998  94.7735 0001643 269.3942  90.6722 15.27581011 95032
STARLINK-31583          
1 59369U 24060X   25335.37325527  .00000100  00000+0  13163-4 0  9994
2 59369  43.0039  84.1028 0001847 268.9460  91.1180 15.27573784 95150
STARLINK-31461          
1 59370U 24060Y   25335.58097752  .00000271  00000+0  19375-4 0  9995
2 59370  43.0011  83.0806 0001353 253.3999 106.6704 15.27575983 95125
STARLINK-31641          
1 59374U 24062A   25336.25488360  .00002015  00000+0  80160-4 0  9993
2 59374  53.1608 351.0890 0001273  72.0415 288.0725 15.30198539 94707
STARLINK-31430          
1 59375U 24062B   25336.24749827  .00000578  00000+0  31658-4 0  9991
2 59375  53.1615 351.0394 0001200  85.8091 274.3047 15.30193031 94715
STARLINK-31695          
1 59376U 24062C   25336.25529525 -.00001959  00000+0 -54018-4 0  9995
2 59376  53.1616 348.2488 0001747  93.9241 266.1959 15.30209391 94710
STARLINK-31716          
1 59377U 24062D   25336.22206667 -.00001296  00000+0 -31650-4 0  9993
2 59377  53.1622 299.7451 0001281  99.9416 260.1729 15.30197004 95381
STARLINK-31710          
1 59378U 24062E   25336.26585096  .00002288  00000+0  89358-4 0  9992
2 59378  53.1608 348.3138 0001463 102.1171 257.9993 15.30198704 94717
