[{"OBJECT_NAME":"STARLINK-31549","OBJECT_ID":"2024-060N","EPOCH":"2025-12-02T01:13:59.713248","MEAN_MOTION":15.27558015,"ECCENTRICITY":5.662e-5,"INCLINATION":42.9988,"RA_OF_ASC_NODE":90.9772,"ARG_OF_PERICENTER":97.8772,"MEAN_ANOMALY":262.2144,"EPHEMERIS_TYPE":0,"CLASSIFICATION_TYPE":"U","NORAD_CAT_ID":59360,"ELEMENT_SET_NO":999,"REV_AT_EPOCH":9513,"BSTAR":-6.4234429e-5,"MEAN_MOTION_DOT":-2.028e-5,"MEAN_MOTION_DDOT":0},{"OBJECT_NAME":"STARLINK-31560","OBJECT_ID":"2024-060P","EPOCH":"2025-12-01T15:02:59.244576","MEAN_MOTION":15.27571187,"ECCENTRICITY":0.00010055,"INCLINATION":42.9989,"RA_OF_ASC_NODE":93.8113,"ARG_OF_PERICENTER":276.8444,"MEAN_ANOMALY":83.2293,"EPHEMERIS_TYPE":0,"CLASSIFICATION_TYPE":"U","NORAD_CAT_ID":59361,"ELEMENT_SET_NO":999,"REV_AT_EPOCH":9506,"BSTAR":1.2078249e-5,"MEAN_MOTION_DOT":7.0e-7,"MEAN_MOTION_DDOT":0},{"OBJECT_NAME":"STARLINK-31571","OBJECT_ID":"2024-060Q","EPOCH":"2025-12-01T08:50:03.496992","MEAN_MOTION":15.2757296,"ECCENTRICITY":9.102e-5,"INCLINATION":42.9996,"RA_OF_ASC_NODE":95.3116,"ARG_OF_PERICENTER":271.0089,"MEAN_ANOMALY":89.0659,"EPHEMERIS_TYPE":0,"CLASSIFICATION_TYPE":"U","NORAD_CAT_ID":59362,"ELEMENT_SET_NO":999,"REV_AT_EPOCH":9502,"BSTAR":-4.187224e-6,"MEAN_MOTION_DOT":-3.77e-6,"MEAN_MOTION_DDOT":0},{"OBJECT_NAME":"STARLINK-31553","OBJECT_ID":"2024-060R","EPOCH":"2025-12-01T14:51:24.765696","MEAN_MOTION":15.2758454,"ECCENTRICITY":0.000103,"INCLINATION":42.9996,"RA_OF_ASC_NODE":86.8155,"ARG_OF_PERICENTER":274.2993,"MEAN_ANOMALY":85.7741,"EPHEMERIS_TYPE":0,"CLASSIFICATION_TYPE":"U","NORAD_CAT_ID":59363,"ELEMENT_SET_NO":999,"REV_AT_EPOCH":9514,"BSTAR":-6.4365748e-5,"MEAN_MOTION_DOT":-2.033e-5,"MEAN_MOTION_DDOT":0},{"OBJECT_NAME":"STARLINK-31547","OBJECT_ID":"2024-060S","EPOCH":"2025-12-01T23:58:20.280576","MEAN_MOTION":15.27600175,"ECCENTRICITY":0.00012844,"INCLINATION":43.0023,"RA_OF_ASC_NODE":80.1988,"ARG_OF_PERICENTER":291.5127,"MEAN_ANOMALY":68.5587,"EPHEMERIS_TYPE":0,"CLASSIFICATION_TYPE":"U","NORAD_CAT_ID":59364,"ELEMENT_SET_NO":999,"REV_AT_EPOCH":9525,"BSTAR":-0.00011608973,"MEAN_MOTION_DOT":-3.457e-5,"MEAN_MOTION_DDOT":0},{"OBJECT_NAME":"STARLINK-31537","OBJECT_ID":"2024-060T","EPOCH":"2025-12-01T15:17:46.557024","MEAN_MOTION":15.27571179,"ECCENTRICITY":0.00014455,"INCLINATION":43.0027,"RA_OF_ASC_NODE":93.8932,"ARG_OF_PERICENTER":275.428,"MEAN_ANOMALY":84.6406,"EPHEMERIS_TYPE":0,"CLASSIFICATION_TYPE":"U","NORAD_CAT_ID":59365,"ELEMENT_SET_NO":999,"REV_AT_EPOCH":9506,"BSTAR":0.00015097226,"MEAN_MOTION_DOT":3.893e-5,"MEAN_MOTION_DDOT":0},{"OBJECT_NAME":"STARLINK-31451","OBJECT_ID":"2024-060U","EPOCH":"2025-12-02T01:08:28.463424","MEAN_MOTION":15.27541813,"ECCENTRICITY":0.00018593,"INCLINATION":43.0053,"RA_OF_ASC_NODE":90.9498,"ARG_OF_PERICENTER":264.0589,"MEAN_ANOMALY":96.0051,"EPHEMERIS_TYPE":0,"CLASSIFICATION_TYPE":"U","NORAD_CAT_ID":59366,"ELEMENT_SET_NO":999,"REV_AT_EPOCH":9513,"BSTAR":-0.00012916655,"MEAN_MOTION_DOT":-3.811e-5,"MEAN_MOTION_DDOT":0},{"OBJECT_NAME":"STARLINK-31428","OBJECT_ID":"2024-060V","EPOCH":"2025-12-01T14:25:58.157184","MEAN_MOTION":15.27580743,"ECCENTRICITY":0.00013668,"INCLINATION":43.0021,"RA_OF_ASC_NODE":93.6175,"ARG_OF_PERICENTER":243.7368,"MEAN_ANOMALY":116.3343,"EPHEMERIS_TYPE":0,"CLASSIFICATION_TYPE":"U","NORAD_CAT_ID":59367,"ELEMENT_SET_NO":999,"REV_AT_EPOCH":9506,"BSTAR":3.8053797e-5,"MEAN_MOTION_DOT":7.85e-6,"MEAN_MOTION_DDOT":0},{"OBJECT_NAME":"STARLINK-31419","OBJECT_ID":"2024-060W","EPOCH":"2025-12-01T09:52:45.264864","MEAN_MOTION":15.27581011,"ECCENTRICITY":0.00016433,"INCLINATION":42.9998,"RA_OF_ASC_NODE":94.7735,"ARG_OF_PERICENTER":269.3942,"MEAN_ANOMALY":90.6722,"EPHEMERIS_TYPE":0,"CLASSIFICATION_TYPE":"U","NORAD_CAT_ID":59368,"ELEMENT_SET_NO":999,"REV_AT_EPOCH":9503,"BSTAR":3.3882126e-5,"MEAN_MOTION_DOT":6.7e-6,"MEAN_MOTION_DDOT":0},{"OBJECT_NAME":"STARLINK-31583","OBJECT_ID":"2024-060X","EPOCH":"2025-12-01T08:57:29.255328","MEAN_MOTION":15.27573784,"ECCENTRICITY":0.00018475,"INCLINATION":43.0039,"RA_OF_ASC_NODE":84.1028,"ARG_OF_PERICENTER":268.946,"MEAN_ANOMALY":91.118,"EPHEMERIS_TYPE":0,"CLASSIFICATION_TYPE":"U","NORAD_CAT_ID":59369,"ELEMENT_SET_NO":999,"REV_AT_EPOCH":9515,"BSTAR":1.3162595e-5,"MEAN_MOTION_DOT":1.0e-6,"MEAN_MOTION_DDOT":0},{"OBJECT_NAME":"STARLINK-31461","OBJECT_ID":"2024-060Y","EPOCH":"2025-12-01T13:56:36.457728","MEAN_MOTION":15.27575983,"ECCENTRICITY":0.00013531,"INCLINATION":43.0011,"RA_OF_ASC_NODE":83.0806,"ARG_OF_PERICENTER":253.3999,"MEAN_ANOMALY":106.6704,"EPHEMERIS_TYPE":0,"CLASSIFICATION_TYPE":"U","NORAD_CAT_ID":59370,"ELEMENT_SET_NO":999,"REV_AT_EPOCH":9512,"BSTAR":1.9374657e-5,"MEAN_MOTION_DOT":2.71e-6,"MEAN_MOTION_DDOT":0},{"OBJECT_NAME":"STARLINK-31641","OBJECT_ID":"2024-062A","EPOCH":"2025-12-02T06:07:01.943040","MEAN_MOTION":15.30198539,"ECCENTRICITY":0.00012734,"INCLINATION":53.1608,"RA_OF_ASC_NODE":351.089,"ARG_OF_PERICENTER":72.0415,"MEAN_ANOMALY":288.0725,"EPHEMERIS_TYPE":0,"CLASSIFICATION_TYPE":"U","NORAD_CAT_ID":59374,"ELEMENT_SET_NO":999,"REV_AT_EPOCH":9470,"BSTAR":8.0160097e-5,"MEAN_MOTION_DOT":2.015e-5,"MEAN_MOTION_DDOT":0},{"OBJECT_NAME":"STARLINK-31430","OBJECT_ID":"2024-062B","EPOCH":"2025-12-02T05:56:23.850528","MEAN_MOTION":15.30193031,"ECCENTRICITY":0.00012001,"INCLINATION":53.1615,"RA_OF_ASC_NODE":351.0394,"ARG_OF_PERICENTER":85.8091,"MEAN_ANOMALY":274.3047,"EPHEMERIS_TYPE":0,"CLASSIFICATION_TYPE":"U","NORAD_CAT_ID":59375,"ELEMENT_SET_NO":999,"REV_AT_EPOCH":9471,"BSTAR":3.1658043e-5,"MEAN_MOTION_DOT":5.78e-6,"MEAN_MOTION_DDOT":0},{"OBJECT_NAME":"STARLINK-31695","OBJECT_ID":"2024-062C","EPOCH":"2025-12-02T06:07:37.509600","MEAN_MOTION":15.30209391,"ECCENTRICITY":0.00017476,"INCLINATION":53.1616,"RA_OF_ASC_NODE":348.2488,"ARG_OF_PERICENTER":93.9241,"MEAN_ANOMALY":266.1959,"EPHEMERIS_TYPE":0,"CLASSIFICATION_TYPE":"U","NORAD_CAT_ID":59376,"ELEMENT_SET_NO":999,"REV_AT_EPOCH":9471,"BSTAR":-5.4017719e-5,"MEAN_MOTION_DOT":-1.959e-5,"MEAN_MOTION_DDOT":0},{"OBJECT_NAME":"STARLINK-31716","OBJECT_ID":"2024-062D","EPOCH":"2025-12-02T05:19:46.560288","MEAN_MOTION":15.30197004,"ECCENTRICITY":0.00012815,"INCLINATION":53.1622,"RA_OF_ASC_NODE":299.7451,"ARG_OF_PERICENTER":99.9416,"MEAN_ANOMALY":260.1729,"EPHEMERIS_TYPE":0,"CLASSIFICATION_TYPE":"U","NORAD_CAT_ID":59377,"ELEMENT_SET_NO":999,"REV_AT_EPOCH":9538,"BSTAR":-3.1649856e-5,"MEAN_MOTION_DOT":-1.296e-5,"MEAN_MOTION_DDOT":0},{"OBJECT_NAME":"STARLINK-31710","OBJECT_ID":"2024-062E","EPOCH":"2025-12-02T06:22:49.522944","MEAN_MOTION":15.30198704,"ECCENTRICITY":0.00014639,"INCLINATION":53.1608,"RA_OF_ASC_NODE":348.3138,"ARG_OF_PERICENTER":102.1171,"MEAN_ANOMALY":257.9993,"EPHEMERIS_TYPE":0,"CLASSIFICATION_TYPE":"U","NORAD_CAT_ID":59378,"ELEMENT_SET_NO":999,"REV_AT_EPOCH":9471,"BSTAR":8.9357521e-5,"MEAN_MOTION_DOT":2.288e-5,"MEAN_MOTION_DDOT":0}]
